[{"OBJECT_NAME":"STARLINK-32734","OBJECT_ID":"2024-254Q","EPOCH":"2026-03-09T05:56:12.140736","MEAN_MOTION":15.27593191,"ECCENTRICITY":0.00015942,"INCLINATION":43.004,"RA_OF_ASC_NODE":19.0143,"ARG_OF_PERICENTER":252.3822,"MEAN_ANOMALY":107.6856,"EPHEMERIS_TYPE":0,"CLASSIFICATION_TYPE":"U","NORAD_CAT_ID":62476,"ELEMENT_SET_NO":999,"REV_AT_EPOCH":6758,"BSTAR":0.0014176925,"MEAN_MOTION_DOT":0.00038972,"MEAN_MOTION_DDOT":0},{"OBJECT_NAME":"CZ-4B R\/B","OBJECT_ID":"2004-035C","EPOCH":"2026-03-09T23:23:31.358400","MEAN_MOTION":15.2906998,"ECCENTRICITY":0.00309852,"INCLINATION":97.3501,"RA_OF_ASC_NODE":103.2135,"ARG_OF_PERICENTER":330.5139,"MEAN_ANOMALY":29.4353,"EPHEMERIS_TYPE":0,"CLASSIFICATION_TYPE":"U","NORAD_CAT_ID":28415,"ELEMENT_SET_NO":999,"REV_AT_EPOCH":17995,"BSTAR":0.00034109099,"MEAN_MOTION_DOT":9.691e-5,"MEAN_MOTION_DDOT":0}]
